start=new Date('2022-11-03T00:00:00.000Z').valueOf();
sats=[{"CENTER_NAME":"EARTH","REF_FRAME":"TEME","MEAN_MOTION_DDOT":"0.0000000000000","INCLINATION":"53.0536","CLASSIFICATION_TYPE":"U","OBJECT_NAME":"STARLINK-1967","NORAD_CAT_ID":"47568","MEAN_ELEMENT_THEORY":"SGP4","EPHEMERIS_TYPE":"0","RCS_SIZE":"LARGE","PERIAPSIS":"546.285","OBJECT_TYPE":"PAYLOAD","SEMIMAJOR_AXIS":"6925.357","EPOCH":"2022-11-02T15:27:56.641248","OBJECT_ID":"2021-009W","MEAN_ANOMALY":"263.2330","TIME_SYSTEM":"UTC","LAUNCH_DATE":"2021-02-04","TLE_LINE2":"2 47568  53.0536 132.0927 0001353  96.8813 263.2330 15.06397391 96171","ARG_OF_PERICENTER":"96.8813","COUNTRY_CODE":"US","APOAPSIS":"548.159","GP_ID":"216789700","TLE_LINE1":"1 47568U 21009W   22306.64440557  .00002139  00000-0  16243-3 0  9994","BSTAR":"0.00016243000000","ECCENTRICITY":"0.00013530","SITE":"AFETR","DECAY_DATE":null,"MEAN_MOTION":"15.06397391","PERIOD":"95.592","RA_OF_ASC_NODE":"132.0927","MEAN_MOTION_DOT":"0.00002139","ELEMENT_SET_NO":"999","REV_AT_EPOCH":"9617","FILE":"3643025"},{"REV_AT_EPOCH":"9820","ELEMENT_SET_NO":"999","RA_OF_ASC_NODE":"346.9776","MEAN_MOTION_DOT":"0.00178322","FILE":"3642416","SITE":"AFETR","BSTAR":"0.00101110000000","ECCENTRICITY":"0.00081040","TLE_LINE1":"1 47569U 21009X   22306.40001234  .00178322  00000-0  10111-2 0  9999","GP_ID":"216752590","PERIOD":"91.256","MEAN_MOTION":"15.77979738","DECAY_DATE":null,"MEAN_ANOMALY":"346.9766","OBJECT_ID":"2021-009X","EPOCH":"2022-11-02T09:36:01.066176","SEMIMAJOR_AXIS":"6714.302","OBJECT_TYPE":"PAYLOAD","APOAPSIS":"341.609","COUNTRY_CODE":"US","ARG_OF_PERICENTER":"13.1464","TLE_LINE2":"2 47569  53.0546 346.9776 0008104  13.1464 346.9766 15.77979738 98203","TIME_SYSTEM":"UTC","LAUNCH_DATE":"2021-02-04","CLASSIFICATION_TYPE":"U","INCLINATION":"53.0546","MEAN_MOTION_DDOT":"0.0000000000000","REF_FRAME":"TEME","CENTER_NAME":"EARTH","PERIAPSIS":"330.726","RCS_SIZE":"LARGE","EPHEMERIS_TYPE":"0","MEAN_ELEMENT_THEORY":"SGP4","NORAD_CAT_ID":"47569","OBJECT_NAME":"STARLINK-1968"},{"FILE":"3643025","RA_OF_ASC_NODE":"91.2186","MEAN_MOTION_DOT":"-0.00001437","ELEMENT_SET_NO":"999","REV_AT_EPOCH":"9676","DECAY_DATE":null,"PERIOD":"95.593","MEAN_MOTION":"15.06390905","GP_ID":"216788700","BSTAR":"-0.00007758800000","ECCENTRICITY":"0.00014540","TLE_LINE1":"1 47570U 21009Y   22306.83607443 -.00001437  00000-0 -77588-4 0  9999","SITE":"AFETR","TIME_SYSTEM":"UTC","LAUNCH_DATE":"2021-02-04","TLE_LINE2":"2 47570  53.0554  91.2186 0001454 113.8956 246.2186 15.06390905 96766","ARG_OF_PERICENTER":"113.8956","APOAPSIS":"548.248","COUNTRY_CODE":"US","OBJECT_TYPE":"PAYLOAD","SEMIMAJOR_AXIS":"6925.376","EPOCH":"2022-11-02T20:03:56.830752","MEAN_ANOMALY":"246.2186","OBJECT_ID":"2021-009Y","OBJECT_NAME":"STARLINK-1969","NORAD_CAT_ID":"47570","EPHEMERIS_TYPE":"0","MEAN_ELEMENT_THEORY":"SGP4","PERIAPSIS":"546.234","RCS_SIZE":"LARGE","REF_FRAME":"TEME","CENTER_NAME":"EARTH","CLASSIFICATION_TYPE":"U","MEAN_MOTION_DDOT":"0.0000000000000","INCLINATION":"53.0554"},{"TLE_LINE2":"2 47571  53.0557 102.6711 0001045 126.0789 234.0297 15.06405460 97174","ARG_OF_PERICENTER":"126.0789","LAUNCH_DATE":"2021-02-04","TIME_SYSTEM":"UTC","APOAPSIS":"547.921","COUNTRY_CODE":"US","SEMIMAJOR_AXIS":"6925.332","OBJECT_TYPE":"PAYLOAD","MEAN_ANOMALY":"234.0297","OBJECT_ID":"2021-009Z","EPOCH":"2022-11-02T12:20:49.851168","NORAD_CAT_ID":"47571","OBJECT_NAME":"STARLINK-1970","RCS_SIZE":"LARGE","PERIAPSIS":"546.473","EPHEMERIS_TYPE":"0","MEAN_ELEMENT_THEORY":"SGP4","REF_FRAME":"TEME","CENTER_NAME":"EARTH","CLASSIFICATION_TYPE":"U","INCLINATION":"53.0557","MEAN_MOTION_DDOT":"0.0000000000000","FILE":"3641895","MEAN_MOTION_DOT":"0.00000882","RA_OF_ASC_NODE":"102.6711","REV_AT_EPOCH":"9717","ELEMENT_SET_NO":"999","DECAY_DATE":null,"PERIOD":"95.592","MEAN_MOTION":"15.06405460","GP_ID":"216719182","SITE":"AFETR","ECCENTRICITY":"0.00010450","BSTAR":"0.00007807700000","TLE_LINE1":"1 47571U 21009Z   22306.51446587  .00000882  00000-0  78077-4 0  9990"},{"PERIOD":"95.592","MEAN_MOTION":"15.06397168","DECAY_DATE":null,"SITE":"AFETR","BSTAR":"0.00016094000000","ECCENTRICITY":"0.00014370","TLE_LINE1":"1 47572U 21009AA  22306.56239268  .00002116  00000-0  16094-3 0  9994","GP_ID":"216789201","FILE":"3643025","REV_AT_EPOCH":"9658","ELEMENT_SET_NO":"999","MEAN_MOTION_DOT":"0.00002116","RA_OF_ASC_NODE":"102.4555","PERIAPSIS":"546.227","RCS_SIZE":"LARGE","EPHEMERIS_TYPE":"0","MEAN_ELEMENT_THEORY":"SGP4","NORAD_CAT_ID":"47572","OBJECT_NAME":"STARLINK-1971","CLASSIFICATION_TYPE":"U","INCLINATION":"53.0540","MEAN_MOTION_DDOT":"0.0000000000000","REF_FRAME":"TEME","CENTER_NAME":"EARTH","APOAPSIS":"548.217","COUNTRY_CODE":"US","ARG_OF_PERICENTER":"106.0050","TLE_LINE2":"2 47572  53.0540 102.4555 0001437 106.0050 254.1098 15.06397168 96586","TIME_SYSTEM":"UTC","LAUNCH_DATE":"2021-02-04","MEAN_ANOMALY":"254.1098","OBJECT_ID":"2021-009AA","EPOCH":"2022-11-02T13:29:50.727552","SEMIMAJOR_AXIS":"6925.357","OBJECT_TYPE":"PAYLOAD"},{"CLASSIFICATION_TYPE":"U","MEAN_MOTION_DDOT":"0.0000000000000","INCLINATION":"53.0528","REF_FRAME":"TEME","CENTER_NAME":"EARTH","EPHEMERIS_TYPE":"0","MEAN_ELEMENT_THEORY":"SGP4","PERIAPSIS":"546.279","RCS_SIZE":"LARGE","OBJECT_NAME":"STARLINK-1975","NORAD_CAT_ID":"47573","EPOCH":"2022-11-02T19:20:10.169664","MEAN_ANOMALY":"243.3704","OBJECT_ID":"2021-009AB","OBJECT_TYPE":"PAYLOAD","SEMIMAJOR_AXIS":"6925.392","APOAPSIS":"548.236","COUNTRY_CODE":"US","TIME_SYSTEM":"UTC","LAUNCH_DATE":"2021-02-04","TLE_LINE2":"2 47573  53.0528 101.3531 0001413 116.7430 243.3704 15.06385783 96617","ARG_OF_PERICENTER":"116.7430","ECCENTRICITY":"0.00014130","BSTAR":"0.00001555800000","TLE_LINE1":"1 47573U 21009AB  22306.80567326 -.00000050  00000-0  15558-4 0  9992","SITE":"AFETR","GP_ID":"216789951","PERIOD":"95.593","MEAN_MOTION":"15.06385783","DECAY_DATE":null,"ELEMENT_SET_NO":"999","REV_AT_EPOCH":"9661","MEAN_MOTION_DOT":"-0.00000050","RA_OF_ASC_NODE":"101.3531","FILE":"3643025"},{"MEAN_ELEMENT_THEORY":"SGP4","EPHEMERIS_TYPE":"0","RCS_SIZE":"LARGE","PERIAPSIS":"546.411","OBJECT_NAME":"STARLINK-1976","NORAD_CAT_ID":"47574","MEAN_MOTION_DDOT":"0.0000000000000","INCLINATION":"53.0537","CLASSIFICATION_TYPE":"U","CENTER_NAME":"EARTH","REF_FRAME":"TEME","COUNTRY_CODE":"US","APOAPSIS":"548.107","LAUNCH_DATE":"2021-02-04","TIME_SYSTEM":"UTC","TLE_LINE2":"2 47574  53.0537 131.2903 0001224 108.2561 251.8561 15.06385225 96193","ARG_OF_PERICENTER":"108.2561","EPOCH":"2022-11-02T19:42:44.360928","OBJECT_ID":"2021-009AC","MEAN_ANOMALY":"251.8561","OBJECT_TYPE":"PAYLOAD","SEMIMAJOR_AXIS":"6925.394","MEAN_MOTION":"15.06385225","PERIOD":"95.593","DECAY_DATE":null,"TLE_LINE1":"1 47574U 21009AC  22306.82134677  .00002679  00000-0  19873-3 0  9995","ECCENTRICITY":"0.00012240","BSTAR":"0.00019873000000","SITE":"AFETR","GP_ID":"216788201","FILE":"3643025","ELEMENT_SET_NO":"999","REV_AT_EPOCH":"9619","MEAN_MOTION_DOT":"0.00002679","RA_OF_ASC_NODE":"131.2903"},{"OBJECT_TYPE":"PAYLOAD","SEMIMAJOR_AXIS":"6925.384","EPOCH":"2022-11-02T19:26:47.598432","MEAN_ANOMALY":"236.7413","OBJECT_ID":"2021-009AD","LAUNCH_DATE":"2021-02-04","TIME_SYSTEM":"UTC","TLE_LINE2":"2 47575  53.0556 131.3435 0000584 123.3632 236.7413 15.06388486 96191","ARG_OF_PERICENTER":"123.3632","APOAPSIS":"547.653","COUNTRY_CODE":"US","REF_FRAME":"TEME","CENTER_NAME":"EARTH","CLASSIFICATION_TYPE":"U","INCLINATION":"53.0556","MEAN_MOTION_DDOT":"0.0000000000000","OBJECT_NAME":"STARLINK-1977","NORAD_CAT_ID":"47575","EPHEMERIS_TYPE":"0","MEAN_ELEMENT_THEORY":"SGP4","PERIAPSIS":"546.844","RCS_SIZE":"LARGE","MEAN_MOTION_DOT":"0.00001339","RA_OF_ASC_NODE":"131.3435","ELEMENT_SET_NO":"999","REV_AT_EPOCH":"9619","FILE":"3643025","GP_ID":"216788449","BSTAR":"0.00010878000000","ECCENTRICITY":"0.00005840","TLE_LINE1":"1 47575U 21009AD  22306.81027313  .00001339  00000-0  10878-3 0  9991","SITE":"AFETR","DECAY_DATE":null,"PERIOD":"95.593","MEAN_MOTION":"15.06388486"},{"RA_OF_ASC_NODE":"91.7958","MEAN_MOTION_DOT":"-0.00001282","ELEMENT_SET_NO":"999","REV_AT_EPOCH":"9735","FILE":"3643008","GP_ID":"216767195","TLE_LINE1":"1 47576U 21009AE  22306.71075372 -.00001282  00000-0 -67183-4 0  9990","ECCENTRICITY":"0.00014490","BSTAR":"-0.00006718300000","SITE":"AFETR","DECAY_DATE":null,"MEAN_MOTION":"15.06389603","PERIOD":"95.593","OBJECT_TYPE":"PAYLOAD","SEMIMAJOR_AXIS":"6925.380","EPOCH":"2022-11-02T17:03:29.121408","OBJECT_ID":"2021-009AE","MEAN_ANOMALY":"240.0545","TIME_SYSTEM":"UTC","LAUNCH_DATE":"2021-02-04","TLE_LINE2":"2 47576  53.0543  91.7958 0001449 120.0588 240.0545 15.06389603 97357","ARG_OF_PERICENTER":"120.0588","COUNTRY_CODE":"US","APOAPSIS":"548.249","CENTER_NAME":"EARTH","REF_FRAME":"TEME","INCLINATION":"53.0543","MEAN_MOTION_DDOT":"0.0000000000000","CLASSIFICATION_TYPE":"U","OBJECT_NAME":"STARLINK-1978","NORAD_CAT_ID":"47576","MEAN_ELEMENT_THEORY":"SGP4","EPHEMERIS_TYPE":"0","RCS_SIZE":"LARGE","PERIAPSIS":"546.242"},{"MEAN_MOTION_DOT":"-0.00000126","RA_OF_ASC_NODE":"107.2015","ELEMENT_SET_NO":"999","REV_AT_EPOCH":"9652","FILE":"3643025","GP_ID":"216789452","TLE_LINE1":"1 47577U 21009AF  22306.61906349 -.00000126  00000-0  10404-4 0  9996","ECCENTRICITY":"0.00013270","BSTAR":"0.00001040400000","SITE":"AFETR","DECAY_DATE":null,"MEAN_MOTION":"15.06393817","PERIOD":"95.593","OBJECT_TYPE":"PAYLOAD","SEMIMAJOR_AXIS":"6925.368","EPOCH":"2022-11-02T14:51:27.085536","OBJECT_ID":"2021-009AF","MEAN_ANOMALY":"246.5272","TIME_SYSTEM":"UTC","LAUNCH_DATE":"2021-02-04","ARG_OF_PERICENTER":"113.5857","TLE_LINE2":"2 47577  53.0548 107.2015 0001327 113.5857 246.5272 15.06393817 96529","COUNTRY_CODE":"US","APOAPSIS":"548.152","CENTER_NAME":"EARTH","REF_FRAME":"TEME","INCLINATION":"53.0548","MEAN_MOTION_DDOT":"0.0000000000000","CLASSIFICATION_TYPE":"U","OBJECT_NAME":"STARLINK-1979","NORAD_CAT_ID":"47577","MEAN_ELEMENT_THEORY":"SGP4","EPHEMERIS_TYPE":"0","RCS_SIZE":"LARGE","PERIAPSIS":"546.314"}];
